#aV2020  1 29  0  0  0.00000000     288 DD+AD WGS84 FIT  NGA
## 2090 259200.00000000   300.00000000 58877 0.0000000000000
+   32     1  2  3  4  5  6  7  8  9 10 11 12 13 14 15 16 17
+         18 19 20 21 22 23 24 25 26 27 28 29 30 31 32  0  0
+          0  0  0  0  0  0  0  0  0  0  0  0  0  0  0  0  0
+          0  0  0  0  0  0  0  0  0  0  0  0  0  0  0  0  0
+          0  0  0  0  0  0  0  0  0  0  0  0  0  0  0  0  0
++         2  2  2  2  2  2  2  2  2  2  2  2  2  2  2  2  2
++         2  2  2  2  2  2  2  2  2  2  2  2  2  2  2  0  0
++         0  0  0  0  0  0  0  0  0  0  0  0  0  0  0  0  0
++         0  0  0  0  0  0  0  0  0  0  0  0  0  0  0  0  0
++         0  0  0  0  0  0  0  0  0  0  0  0  0  0  0  0  0
%c cc cc ccc ccc cccc cccc cccc cccc ccccc ccccc ccccc ccccc
%c cc cc ccc ccc cccc cccc cccc cccc ccccc ccccc ccccc ccccc
%f  0.0000000  0.000000000  0.00000000000  0.000000000000000
%f  0.0000000  0.000000000  0.00000000000  0.000000000000000
%i    0    0    0    0      0      0      0      0         0
%i    0    0    0    0      0      0      0      0         0
/*      NGA, ST. LOUIS,MO.                                  
/*   EPHEMERIS COMPUTED FROM 2 DAYS OF DATA                 
/*   EPOCHA v5 SMOOTHER                                     
/*   G1762 IERS2010 SATAF SATAPC                            
*  2020  1 29  2  0  0.00000000
P  1  13778.772189  -7115.212837  21307.331845   -277.412990                    
V  1   3040.309806  27387.187210   7426.668874     -0.121426                    
P  2 -13436.429637 -16728.804000 -15074.336961   -394.663118                    
V  2  -1030.067532 -20359.251836  22475.847873     -0.070554                    
P  3  22860.657001 -12813.862557   3941.582880    -82.253789                    
V  3  -2582.139979   5161.412019  31386.270617     -0.082258                    
P  4  20441.405815  -2887.032890 -16718.247696    -41.051877                    
V  4  18191.087838  11102.250905  20294.656225     -0.054177                    
P  5 -17727.165546  -4077.704564 -19551.457259     -6.767768                    
V  5  18841.229635 -15719.152356 -13708.963618     -0.005452                    
P  6  -6635.907668 -24890.127031  -6344.719312   -194.540318                    
V  6   1440.013813  -8291.985234  30792.069956     -0.098508                    
P  7   6444.104905 -22609.059450 -11591.471054   -202.380189                    
V  7   4220.821600  15062.778896 -26858.228309     -0.083702                    
P  8  24942.606366   4926.425464   8131.968325    -21.855469                    
V  8   8466.704298   6091.043337 -29539.437222     -0.013273                    
P  9  11732.007872 -11214.463697 -21086.008383   -143.186381                    
V  9  24110.506978  11413.334269   7347.980772     -0.086214                    
P 10  -3597.012538  18471.528701  18724.562026   -226.050519                    
V 10 -20168.136642  12518.173707 -16515.516158     -0.133579                    
P 11  17638.182610    139.836077  19279.011765   -376.784943                    
V 11  12009.169776  22952.372009 -11186.227150      0.108294                    
P 12 -23823.282015   9068.415656   6912.871238    157.264443                    
V 12   6593.198551  -6672.775549  30653.019091     -0.041432                    
P 13 -23105.221583 -13072.157222   1617.028577    -16.732771                    
V 13   -525.160892  -3313.655131 -31767.258238      0.026487                    
P 14  16019.738934  18158.822077  11450.955012    -35.899286                    
V 14 -13268.491621  -4915.206371  26960.389410      0.023699                    
P 15 -25308.956877  -2274.760298   8059.500250   -255.364004                    
V 15  -8947.613735  -6562.057593 -28473.304875      0.026322                    
P 16  16986.045848   5602.244839 -19986.372751   -118.561573                    
V 16 -21029.736821  13048.916691 -13921.364109     -0.040636                    
P 17  -6647.177216 -17810.035373  18999.611763    206.733168                    
V 17  20911.789994   9996.169304  17019.141194      0.064907                    
P 18  15319.716145   1922.585840  21116.558563    116.349313                    
V 18   3612.681141  27781.623936  -4944.696694      0.022523                    
P 19 -14013.207698 -18280.299676  12926.360571   -206.125603                    
V 19  15446.926683   6995.274512  26058.014338      0.051535                    
P 20 -12199.747764  21242.764646   9911.133569    527.840333                    
V 20 -11771.590258   6167.233439 -27665.473952      0.000318                    
P 21  -2771.180045  24568.179303  -9212.727095    -48.940634                    
V 21  -4786.964897 -12175.418356 -28351.208115      0.054903                    
P 22  22622.204572  -7354.681158  11917.085617   -783.337410                    
V 22  -9393.546001  12004.915171  25826.909888     -0.010070                    
P 23  20031.083835  -4523.684112 -16693.147586   -140.025232                    
V 23  19202.013150  10463.358071  19411.070495      0.025257                    
P 24 -14927.844285   5194.462710  21126.066257     -8.232322                    
V 24  -4670.786975 -27004.356605   3670.213753     -0.004958                    
P 25 -19216.572086  17546.854976  -4747.834425    -14.885186                    
V 25  -6316.267068   1085.519185  31316.096050      0.010487                    
P 26   9174.491993  12485.327418 -21598.839971    137.070261                    
V 26 -21944.828841  16420.608391    386.508655      0.078766                    
P 27  23392.082942  12697.492967  -2687.903879   -195.026895                    
V 27  -3751.655908    437.196772 -31686.306332     -0.111958                    
P 28   3703.519192 -17715.533344  20081.727658    742.578768                    
V 28  21272.522688 -11389.144889 -14268.263608     -0.022063                    
P 29 -12748.074170   9224.417049 -21431.194662    -19.289663                    
V 29 -23530.472539 -13382.270388   8231.161989     -0.095543                    
P 30   -626.192361 -26417.899879  -1145.021804   -140.204370                    
V 30   3762.139525   1294.272970 -31343.836425     -0.089247                    
P 31   7831.221283  23504.287804  -8947.910016    -19.613477                    
V 31  -2261.262193  11629.679443  29133.810675     -0.024715                    
P 32   8230.961789  17722.350490  18116.340121    197.778829                    
V 32 -21449.382106  -7983.943916  17481.039153      0.102786                    
EOF
